OBJECT_NAME,OBJECT_ID,EPOCH,MEAN_MOTION,ECCENTRICITY,INCLINATION,RA_OF_ASC_NODE,ARG_OF_PERICENTER,MEAN_ANOMALY,EPHEMERIS_TYPE,CLASSIFICATION_TYPE,NORAD_CAT_ID,ELEMENT_SET_NO,REV_AT_EPOCH,BSTAR,MEAN_MOTION_DOT,MEAN_MOTION_DDOT
SIRION PATHFINDER-2,2018-099B,2026-06-05T02:10:49.948032,15.14436976,.0008178,97.4254,205.4362,352.2997,7.8108,0,U,43759,999,41079,.30112E-3,.5474E-4,0
CORVUS BC4,2018-099K,2026-06-06T08:06:54.270432,15.12407984,.0009294,97.4068,200.6366,47.3189,312.8823,0,U,43767,999,41076,.3532E-3,.6077E-4,0
M2 PATHFINDER,2020-037E,2026-06-06T11:21:11.111328,15.04629336,.00114912,97.8157,348.5839,183.0917,177.0240,0,U,45727,999,32388,.24486953E-3,.3381E-4,0
NETSAT-4,2020-068U,2026-06-06T11:51:26.385696,15.43504941,.00053109,97.8611,164.8788,20.1399,340.0056,0,U,46504,999,31412,.51124873E-3,.22869E-3,0
NETSAT-3,2020-068V,2026-06-06T11:48:34.443648,15.42307434,.0005633,97.8660,163.1065,37.6577,322.5063,0,U,46505,999,31403,.55136466E-3,.23704E-3,0
NETSAT-1,2020-068W,2026-06-06T05:53:35.654784,15.34378985,.0006218,97.8751,157.3000,62.5752,297.6121,0,U,46506,999,31362,.53581888E-3,.17783E-3,0
NETSAT-2,2020-068X,2026-06-06T06:56:56.236992,15.45524771,.00048706,97.8622,164.5133,56.0683,304.1027,0,U,46507,999,31405,.65210085E-3,.31297E-3,0
GREENCUBE (IO-117),2022-080E,2026-06-01T11:09:37.753056,6.42583280,.00088692,70.1435,303.7143,293.3663,66.6064,0,U,53109,999,9105,0,-.3E-7,0
SITRO-AIS 5 (KATYS),2023-091L,2026-06-06T14:25:42.993984,15.29209643,.00125945,97.5059,221.4018,136.3036,223.9203,0,U,57176,999,16272,.55660367E-3,.15752E-3,0
SITRO-AIS 6 (CHIRKIN),2023-091AC,2026-06-06T14:54:53.172000,15.25731724,.00128785,97.5067,220.5970,139.1385,221.0821,0,U,57192,999,16267,.49102105E-3,.12488E-3,0
SITRO-AIS 8 (ANOKHIN),2023-091AD,2026-06-06T13:42:35.551584,15.31846603,.00117933,97.5056,222.9174,132.4710,227.7530,0,U,57193,999,16282,.59606047E-3,.18311E-3,0
SITRO-AIS 7 (FARTUSHNIY),2023-091AE,2026-06-06T14:56:19.788864,15.25425256,.00127083,97.5065,220.4285,139.9583,220.2594,0,U,57194,999,16266,.48933615E-3,.1233E-3,0
SITRO-AIS 10 (BURDAEV),2023-091AK,2026-06-06T13:58:06.745728,15.38205962,.00079564,97.5081,227.8741,111.4007,248.8087,0,U,57199,999,16313,.65564551E-3,.24662E-3,0
SITRO-AIS 9 (SHCHUKIN),2023-091AM,2026-06-06T14:31:20.510400,15.37730226,.00081794,97.5078,227.6357,111.7423,248.4693,0,U,57201,999,16312,.64938268E-3,.24051E-3,0
SITRO-AIS 12 (SMIRENNIY),2023-091AQ,2026-06-06T14:20:42.641664,15.38020321,.0007845,97.5091,228.0889,106.6433,253.5673,0,U,57204,999,16314,.66123235E-3,.24723E-3,0
SITRO-AIS 11 (SHEFFER),2023-091AU,2026-06-06T11:36:52.584480,15.38428782,.00077098,97.5088,228.2122,106.9342,253.2748,0,U,57208,999,16314,.68834941E-3,.26088E-3,0
SITRO-AIS 25,2024-039R,2026-06-06T14:08:27.138336,14.93454887,.01448681,95.3907,227.8101,5.9698,354.3211,0,U,59066,999,12314,.33034446E-3,.4236E-4,0
SITRO-AIS 26,2024-039S,2026-06-06T14:08:21.173280,14.93252070,.01452225,95.3907,227.7099,6.5400,353.7675,0,U,59067,999,12313,.3422822E-3,.437E-4,0
SITRO-AIS 27,2024-039T,2026-06-06T15:06:14.492160,14.93672134,.0144279,95.3912,228.0044,5.0947,355.1706,0,U,59068,999,12316,.28521367E-3,.3668E-4,0
SITRO-AIS 28,2024-039U,2026-06-06T14:34:06.441600,14.93705741,.01441096,95.3912,228.0357,5.0251,355.2381,0,U,59071,999,12316,.35210917E-3,.4539E-4,0
GRBBETA,2024-128C,2026-06-06T12:49:41.873088,15.06565130,.00420504,61.9899,253.6391,132.5031,227.9627,0,U,60237,999,10466,.36398835E-3,.5306E-4,0
OOV-CUBE (TUBSAT-30),2024-128F,2026-06-06T13:00:42.623136,15.02727006,.00459689,61.9952,262.6903,131.3951,229.1106,0,U,60240,999,10451,.2349135E-3,.3011E-4,0
ROBUSTA-3A (MEDITERRANEE),2024-128J,2026-06-06T11:38:01.609440,15.11542357,.00428284,61.9861,246.0881,125.7968,234.7120,0,U,60243,999,10480,.60712381E-3,.10365E-3,0
LASARSAT,2024-247Q,2026-06-03T22:10:16.072896,15.45494859,.00080478,44.9754,336.7002,258.6055,101.3931,0,U,62391,999,8126,.75515127E-3,.36882E-3,0
CROCUBE,2024-247T,2026-06-06T12:28:14.681568,15.47487318,.00081203,44.9729,319.6326,275.1137,84.8826,0,U,62394,999,8169,.9186902E-3,.48242E-3,0
FORESAIL-1 PRIME,2025-276DS,2026-06-06T10:54:01.714464,15.18604799,.00036299,97.4199,230.9223,125.6883,234.4690,0,U,66778,999,2877,.29553438E-3,.6049E-4,0
KNACKSAT-2,1998-067XZ,2026-06-06T06:20:58.495488,15.58973490,.00105336,51.6302,349.3788,167.5745,192.5509,0,U,67683,999,1857,.81732863E-3,.64955E-3,0
